start=new Date('2022-08-31T00:00:00.000Z').valueOf();
sats=[{"MEAN_ANOMALY":"92.4991","LAUNCH_DATE":"2022-05-13","MEAN_MOTION_DOT":"-0.00021635","PERIAPSIS":"538.377","RCS_SIZE":"LARGE","COUNTRY_CODE":"US","OBJECT_TYPE":"PAYLOAD","TLE_LINE2":"2 52586  53.2162 135.6583 0001968  67.8386  92.4991 15.08842259  1302","SITE":"AFWTR","OBJECT_ID":"2022-051BC","OBJECT_NAME":"STARLINK-3910","PERIOD":"95.437","ARG_OF_PERICENTER":"67.8386","CLASSIFICATION_TYPE":"U","ECCENTRICITY":"0.00019680","MEAN_MOTION":"15.08842259","REV_AT_EPOCH":"130","TIME_SYSTEM":"UTC","EPOCH":"2022-08-30T22:00:00.999936","SEMIMAJOR_AXIS":"6917.873","APOAPSIS":"541.100","TLE_LINE1":"1 52586U 22051BC  22242.91667824 -.00021635  00000-0 -13452-2 0  9997","REF_FRAME":"TEME","INCLINATION":"53.2162","BSTAR":"-0.00134520000000","NORAD_CAT_ID":"52586","DECAY_DATE":null,"FILE":"3552179","ELEMENT_SET_NO":"999","RA_OF_ASC_NODE":"135.6583","MEAN_ELEMENT_THEORY":"SGP4","MEAN_MOTION_DDOT":"0.0000000000000","GP_ID":"211363516","EPHEMERIS_TYPE":"0","CENTER_NAME":"EARTH"},{"SEMIMAJOR_AXIS":"6917.870","EPOCH":"2022-08-30T22:00:00.999936","APOAPSIS":"541.359","TLE_LINE1":"1 52587U 22051BD  22242.91667824 -.00038208  00000-0 -23950-2 0  9996","REF_FRAME":"TEME","BSTAR":"-0.00239500000000","NORAD_CAT_ID":"52587","INCLINATION":"53.2186","FILE":"3552179","DECAY_DATE":null,"ELEMENT_SET_NO":"999","RA_OF_ASC_NODE":"135.6638","MEAN_ELEMENT_THEORY":"SGP4","CENTER_NAME":"EARTH","MEAN_MOTION_DDOT":"0.0000000000000","GP_ID":"211362810","EPHEMERIS_TYPE":"0","LAUNCH_DATE":"2022-05-13","PERIAPSIS":"538.112","MEAN_MOTION_DOT":"-0.00038208","RCS_SIZE":"LARGE","MEAN_ANOMALY":"144.8712","OBJECT_TYPE":"PAYLOAD","COUNTRY_CODE":"US","SITE":"AFWTR","TLE_LINE2":"2 52587  53.2186 135.6638 0002347  55.4522 144.8712 15.08843356  1309","CLASSIFICATION_TYPE":"U","OBJECT_NAME":"STARLINK-3867","OBJECT_ID":"2022-051BD","PERIOD":"95.437","ARG_OF_PERICENTER":"55.4522","ECCENTRICITY":"0.00023470","MEAN_MOTION":"15.08843356","REV_AT_EPOCH":"130","TIME_SYSTEM":"UTC"},{"REF_FRAME":"TEME","TLE_LINE1":"1 52588U 22051BE  22242.91667824 -.00026167  00000-0 -16320-2 0  9991","APOAPSIS":"541.259","SEMIMAJOR_AXIS":"6917.888","EPOCH":"2022-08-30T22:00:00.999936","CENTER_NAME":"EARTH","GP_ID":"211362954","MEAN_MOTION_DDOT":"0.0000000000000","EPHEMERIS_TYPE":"0","RA_OF_ASC_NODE":"135.6653","MEAN_ELEMENT_THEORY":"SGP4","FILE":"3552179","DECAY_DATE":null,"ELEMENT_SET_NO":"999","NORAD_CAT_ID":"52588","BSTAR":"-0.00163200000000","INCLINATION":"53.2193","CLASSIFICATION_TYPE":"U","OBJECT_NAME":"STARLINK-3917","OBJECT_ID":"2022-051BE","PERIOD":"95.438","ARG_OF_PERICENTER":"68.2023","SITE":"AFWTR","TLE_LINE2":"2 52588  53.2193 135.6653 0002178  68.2023 152.1316 15.08837655  1302","OBJECT_TYPE":"PAYLOAD","COUNTRY_CODE":"US","LAUNCH_DATE":"2022-05-13","PERIAPSIS":"538.246","MEAN_MOTION_DOT":"-0.00026167","RCS_SIZE":"LARGE","MEAN_ANOMALY":"152.1316","TIME_SYSTEM":"UTC","REV_AT_EPOCH":"130","MEAN_MOTION":"15.08837655","ECCENTRICITY":"0.00021780"},{"TLE_LINE1":"1 52598U 22052A   22242.91667824 -.00042405  00000-0 -26608-2 0  9996","REF_FRAME":"TEME","SEMIMAJOR_AXIS":"6917.831","EPOCH":"2022-08-30T22:00:00.999936","APOAPSIS":"540.845","MEAN_ELEMENT_THEORY":"SGP4","RA_OF_ASC_NODE":"300.6660","CENTER_NAME":"EARTH","EPHEMERIS_TYPE":"0","GP_ID":"211363517","MEAN_MOTION_DDOT":"0.0000000000000","BSTAR":"-0.00266080000000","NORAD_CAT_ID":"52598","INCLINATION":"53.2152","ELEMENT_SET_NO":"999","DECAY_DATE":null,"FILE":"3552179","SITE":"AFETR","TLE_LINE2":"2 52598  53.2152 300.6660 0001660  53.6368 319.1803 15.08856055  1306","CLASSIFICATION_TYPE":"U","ARG_OF_PERICENTER":"53.6368","PERIOD":"95.437","OBJECT_ID":"2022-052A","OBJECT_NAME":"STARLINK-4019","RCS_SIZE":"LARGE","LAUNCH_DATE":"2022-05-14","PERIAPSIS":"538.548","MEAN_MOTION_DOT":"-0.00042405","MEAN_ANOMALY":"319.1803","OBJECT_TYPE":"PAYLOAD","COUNTRY_CODE":"US","REV_AT_EPOCH":"130","TIME_SYSTEM":"UTC","ECCENTRICITY":"0.00016600","MEAN_MOTION":"15.08856055"},{"RA_OF_ASC_NODE":"295.6604","MEAN_ELEMENT_THEORY":"SGP4","EPHEMERIS_TYPE":"0","MEAN_MOTION_DDOT":"0.0000000000000","GP_ID":"211362811","CENTER_NAME":"EARTH","INCLINATION":"53.2157","NORAD_CAT_ID":"52599","BSTAR":"0.00065397000000","ELEMENT_SET_NO":"999","DECAY_DATE":null,"FILE":"3552179","TLE_LINE1":"1 52599U 22052B   22242.91667824  .00010133  00000-0  65397-3 0  9997","REF_FRAME":"TEME","EPOCH":"2022-08-30T22:00:00.999936","SEMIMAJOR_AXIS":"6917.902","APOAPSIS":"541.043","REV_AT_EPOCH":"130","TIME_SYSTEM":"UTC","ECCENTRICITY":"0.00018440","MEAN_MOTION":"15.08832776","TLE_LINE2":"2 52599  53.2157 295.6604 0001844  53.6272  81.4511 15.08832776  1300","SITE":"AFETR","ARG_OF_PERICENTER":"53.6272","PERIOD":"95.438","OBJECT_ID":"2022-052B","OBJECT_NAME":"STARLINK-4024","CLASSIFICATION_TYPE":"U","MEAN_ANOMALY":"81.4511","RCS_SIZE":"LARGE","PERIAPSIS":"538.492","LAUNCH_DATE":"2022-05-14","MEAN_MOTION_DOT":"0.00010133","COUNTRY_CODE":"US","OBJECT_TYPE":"PAYLOAD"},{"COUNTRY_CODE":"US","OBJECT_TYPE":"PAYLOAD","MEAN_ANOMALY":"147.0406","RCS_SIZE":"LARGE","LAUNCH_DATE":"2022-05-14","PERIAPSIS":"538.527","MEAN_MOTION_DOT":"-0.00027812","ARG_OF_PERICENTER":"53.2530","PERIOD":"95.437","OBJECT_NAME":"STARLINK-4026","OBJECT_ID":"2022-052C","CLASSIFICATION_TYPE":"U","TLE_LINE2":"2 52600  53.2161 295.6598 0001716  53.2530 147.0406 15.08850095  1307","SITE":"AFETR","MEAN_MOTION":"15.08850095","ECCENTRICITY":"0.00017160","TIME_SYSTEM":"UTC","REV_AT_EPOCH":"130","APOAPSIS":"540.902","EPOCH":"2022-08-30T22:00:00.999936","SEMIMAJOR_AXIS":"6917.850","REF_FRAME":"TEME","TLE_LINE1":"1 52600U 22052C   22242.91667824 -.00027812  00000-0 -17356-2 0  9995","ELEMENT_SET_NO":"999","FILE":"3552179","DECAY_DATE":null,"INCLINATION":"53.2161","NORAD_CAT_ID":"52600","BSTAR":"-0.00173560000000","EPHEMERIS_TYPE":"0","MEAN_MOTION_DDOT":"0.0000000000000","GP_ID":"211362955","CENTER_NAME":"EARTH","RA_OF_ASC_NODE":"295.6598","MEAN_ELEMENT_THEORY":"SGP4"},{"REF_FRAME":"TEME","TLE_LINE1":"1 52601U 22052D   22242.91667824  .00006479  00000-0  42497-3 0  9995","APOAPSIS":"540.993","EPOCH":"2022-08-30T22:00:00.999936","SEMIMAJOR_AXIS":"6917.933","EPHEMERIS_TYPE":"0","GP_ID":"211363817","MEAN_MOTION_DDOT":"0.0000000000000","CENTER_NAME":"EARTH","MEAN_ELEMENT_THEORY":"SGP4","RA_OF_ASC_NODE":"295.6617","ELEMENT_SET_NO":"999","DECAY_DATE":null,"FILE":"3552179","INCLINATION":"53.2140","NORAD_CAT_ID":"52601","BSTAR":"0.00042497000000","PERIOD":"95.439","ARG_OF_PERICENTER":"51.6115","OBJECT_NAME":"STARLINK-4027","OBJECT_ID":"2022-052D","CLASSIFICATION_TYPE":"U","TLE_LINE2":"2 52601  53.2140 295.6617 0001727  51.6115 108.7246 15.08822842  1305","SITE":"AFETR","COUNTRY_CODE":"US","OBJECT_TYPE":"PAYLOAD","MEAN_ANOMALY":"108.7246","RCS_SIZE":"LARGE","LAUNCH_DATE":"2022-05-14","MEAN_MOTION_DOT":"0.00006479","PERIAPSIS":"538.603","TIME_SYSTEM":"UTC","REV_AT_EPOCH":"130","MEAN_MOTION":"15.08822842","ECCENTRICITY":"0.00017270"},{"APOAPSIS":"541.018","SEMIMAJOR_AXIS":"6917.916","EPOCH":"2022-08-30T22:00:00.999936","REF_FRAME":"TEME","TLE_LINE1":"1 52602U 22052E   22242.91667824  .00006786  00000-0  44420-3 0  9995","ELEMENT_SET_NO":"999","FILE":"3552179","DECAY_DATE":null,"BSTAR":"0.00044420000000","NORAD_CAT_ID":"52602","INCLINATION":"53.2147","CENTER_NAME":"EARTH","EPHEMERIS_TYPE":"0","MEAN_MOTION_DDOT":"0.0000000000000","GP_ID":"211363099","RA_OF_ASC_NODE":"295.6675","MEAN_ELEMENT_THEORY":"SGP4","OBJECT_TYPE":"PAYLOAD","COUNTRY_CODE":"US","RCS_SIZE":"LARGE","LAUNCH_DATE":"2022-05-14","PERIAPSIS":"538.544","MEAN_MOTION_DOT":"0.00006786","MEAN_ANOMALY":"129.9114","CLASSIFICATION_TYPE":"U","ARG_OF_PERICENTER":"50.3933","PERIOD":"95.438","OBJECT_ID":"2022-052E","OBJECT_NAME":"STARLINK-4012","SITE":"AFETR","TLE_LINE2":"2 52602  53.2147 295.6675 0001788  50.3933 129.9114 15.08828437  1303","MEAN_MOTION":"15.08828437","ECCENTRICITY":"0.00017880","TIME_SYSTEM":"UTC","REV_AT_EPOCH":"130"},{"OBJECT_TYPE":"PAYLOAD","COUNTRY_CODE":"US","LAUNCH_DATE":"2022-05-14","PERIAPSIS":"538.593","MEAN_MOTION_DOT":"0.00006278","RCS_SIZE":"LARGE","MEAN_ANOMALY":"206.8199","CLASSIFICATION_TYPE":"U","OBJECT_NAME":"STARLINK-4016","OBJECT_ID":"2022-052F","PERIOD":"95.438","ARG_OF_PERICENTER":"53.4530","SITE":"AFETR","TLE_LINE2":"2 52603  53.2166 295.6611 0001716  53.4530 206.8199 15.08828734  1301","MEAN_MOTION":"15.08828734","ECCENTRICITY":"0.00017160","TIME_SYSTEM":"UTC","REV_AT_EPOCH":"130","APOAPSIS":"540.967","SEMIMAJOR_AXIS":"6917.915","EPOCH":"2022-08-30T22:00:00.999936","REF_FRAME":"TEME","TLE_LINE1":"1 52603U 22052F   22242.91667824  .00006278  00000-0  41233-3 0  9991","FILE":"3552179","DECAY_DATE":null,"ELEMENT_SET_NO":"999","NORAD_CAT_ID":"52603","BSTAR":"0.00041233000000","INCLINATION":"53.2166","CENTER_NAME":"EARTH","GP_ID":"211363230","MEAN_MOTION_DDOT":"0.0000000000000","EPHEMERIS_TYPE":"0","MEAN_ELEMENT_THEORY":"SGP4","RA_OF_ASC_NODE":"295.6611"},{"OBJECT_TYPE":"PAYLOAD","COUNTRY_CODE":"US","MEAN_MOTION_DOT":"0.00006712","LAUNCH_DATE":"2022-05-14","PERIAPSIS":"538.603","RCS_SIZE":"LARGE","MEAN_ANOMALY":"173.4409","CLASSIFICATION_TYPE":"U","OBJECT_NAME":"STARLINK-4013","OBJECT_ID":"2022-052G","ARG_OF_PERICENTER":"46.8268","PERIOD":"95.438","SITE":"AFETR","TLE_LINE2":"2 52604  53.2147 295.6535 0001715  46.8268 173.4409 15.08825432  1304","MEAN_MOTION":"15.08825432","ECCENTRICITY":"0.00017150","TIME_SYSTEM":"UTC","REV_AT_EPOCH":"130","APOAPSIS":"540.976","SEMIMAJOR_AXIS":"6917.925","EPOCH":"2022-08-30T22:00:00.999936","REF_FRAME":"TEME","TLE_LINE1":"1 52604U 22052G   22242.91667824  .00006712  00000-0  43958-3 0  9991","DECAY_DATE":null,"FILE":"3552179","ELEMENT_SET_NO":"999","BSTAR":"0.00043958000000","NORAD_CAT_ID":"52604","INCLINATION":"53.2147","CENTER_NAME":"EARTH","MEAN_MOTION_DDOT":"0.0000000000000","GP_ID":"211363374","EPHEMERIS_TYPE":"0","MEAN_ELEMENT_THEORY":"SGP4","RA_OF_ASC_NODE":"295.6535"}];
